[
    {
        "Altitude(m)": 617719.7911037845,
        "Argument of Periapsis(deg)": 0.0,
        "Eccentricity": 0.0,
        "Inclination(deg)": 60.0,
        "Latitude(deg)": -41.1026946845481,
        "Longitude(deg)": -54.9053241307566,
        "Mean Anomaly(deg)": -130.90909999999997,
        "RAAN(deg)": 195.00000000000003,
        "Satellite Name": "Test1 872",
        "Satellite Number": 872,
        "Semi-Major Axis(m)": 6980739.136638005,
        "Time(s)": 0
    },
    {
        "Altitude(m)": 617911.3269420863,
        "Argument of Periapsis(deg)": 0.00010418945913296404,
        "Eccentricity": 0.0,
        "Inclination(deg)": 60.0,
        "Latitude(deg)": -41.56588635971207,
        "Longitude(deg)": -54.400916686222224,
        "Mean Anomaly(deg)": -130.28899385453812,
        "RAAN(deg)": 194.99957995086024,
        "Satellite Name": "Test1 872",
        "Satellite Number": 872,
        "Semi-Major Axis(m)": 6980739.136638005,
        "Time(s)": 10
    }
]